DUPLEX                  
1 66906U 98067XS  26123.49262528  .00026134  00000+0  32760-3 0  9995
2 66906  51.6269 154.6093 0005576  13.7798 346.3346 15.59553817 23670
ISS OBJECT XT           
1 66907U 98067XT  26123.33397404  .01301642  10307-2  16738-2 0  9992
2 66907  51.6112 141.3732 0007966  31.0367 329.1114 16.06724784 23837
ISS OBJECT XU           
1 66908U 98067XU  26123.25629778  .01193135  84410-3  14974-2 0  9999
2 66908  51.6120 141.5965 0008390  30.0592 330.0900 16.07058461 23824
ISS OBJECT XW           
1 66910U 98067XW  26124.05653338  .00574830  14964-3  13294-2 0  9995
2 66910  51.6124 138.7107 0009106  33.0426 327.1149 15.96523076 23932
ISS OBJECT XY           
1 66912U 98067XY  26124.09326889  .00154329  00000+0  93276-3 0  9997
2 66912  51.6219 144.3203 0008171  27.9259 332.2178 15.76580594 23852
KNACKSAT-2              
1 67683U 98067XZ  26123.38551293  .00042137  00000+0  59112-3 0  9997
2 67683  51.6273 159.1481 0012715  31.7607 328.4149 15.56224547 13292
CORAL                   
1 67684U 98067YA  26124.07482399  .00107328  00000+0  10824-2 0  9995
2 67684  51.6246 153.2433 0016451  29.4721 330.7198 15.64372849 13431
GXIBA-1                 
1 67685U 98067YB  26123.42299700  .00049317  00000+0  66602-3 0  9995
2 67685  51.6277 158.6480 0014696  29.5636 330.6183 15.57146087 13306
UITMSAT-2               
1 67686U 98067YC  26124.08190169  .00058548  00000+0  73612-3 0  9993
2 67686  51.6266 154.8004 0011684  15.0795 345.0544 15.59023082 13419
HMU-SAT2                
1 67687U 98067YD  26123.56341475  .00045762  00000+0  62855-3 0  9995
2 67687  51.6282 158.0912 0010877  13.5719 346.5563 15.56782399 13242
LEOPARD                 
1 67688U 98067YE  26124.10328777  .00052665  00000+0  68439-3 0  9991
2 67688  51.6276 154.9462 0011302  14.9230 345.2094 15.58197575 13331
CREW DRAGON 12          
1 67796U 26031A   26124.19972499  .00005402  00000+0  10582-3 0  9991
2 67796  51.6306 157.8339 0007307  21.3717 338.7575 15.49085010565155
