
    {
        "ARG_OF_PERICENTER": 13.7798,
        "BSTAR": 0.00032760179,
        "CLASSIFICATION_TYPE": "U",
        "ECCENTRICITY": 0.0005576,
        "ELEMENT_SET_NO": 999,
        "EPHEMERIS_TYPE": 0,
        "EPOCH": "2026-05-03T11:49:22.824192",
        "INCLINATION": 51.6269,
        "MEAN_ANOMALY": 346.3346,
        "MEAN_MOTION": 15.59553817,
        "MEAN_MOTION_DDOT": 0,
        "MEAN_MOTION_DOT": 0.00026134,
        "NORAD_CAT_ID": 66906,
        "OBJECT_ID": "1998-067XS",
        "OBJECT_NAME": "DUPLEX",
        "RA_OF_ASC_NODE": 154.6093,
        "REV_AT_EPOCH": 2367
    },
    {
        "ARG_OF_PERICENTER": 31.0367,
        "BSTAR": 0.0016737754,
        "CLASSIFICATION_TYPE": "U",
        "ECCENTRICITY": 0.00079665,
        "ELEMENT_SET_NO": 999,
        "EPHEMERIS_TYPE": 0,
        "EPOCH": "2026-05-03T08:00:55.357056",
        "INCLINATION": 51.6112,
        "MEAN_ANOMALY": 329.1114,
        "MEAN_MOTION": 16.06724784,
        "MEAN_MOTION_DDOT": 0.0010307125,
        "MEAN_MOTION_DOT": 0.01301642,
        "NORAD_CAT_ID": 66907,
        "OBJECT_ID": "1998-067XT",
        "OBJECT_NAME": "ISS OBJECT XT",
        "RA_OF_ASC_NODE": 141.3732,
        "REV_AT_EPOCH": 2383
    },
    {
        "ARG_OF_PERICENTER": 30.0592,
        "BSTAR": 0.0014973745,
        "CLASSIFICATION_TYPE": "U",
        "ECCENTRICITY": 0.000839,
        "ELEMENT_SET_NO": 999,
        "EPHEMERIS_TYPE": 0,
        "EPOCH": "2026-05-03T06:09:04.128192",
        "INCLINATION": 51.612,
        "MEAN_ANOMALY": 330.09,
        "MEAN_MOTION": 16.07058461,
        "MEAN_MOTION_DDOT": 0.00084409951,
        "MEAN_MOTION_DOT": 0.01193135,
        "NORAD_CAT_ID": 66908,
        "OBJECT_ID": "1998-067XU",
        "OBJECT_NAME": "ISS OBJECT XU",
        "RA_OF_ASC_NODE": 141.5965,
        "REV_AT_EPOCH": 2382
    },
    {
        "ARG_OF_PERICENTER": 33.0426,
        "BSTAR": 0.0013294,
        "CLASSIFICATION_TYPE": "U",
        "ECCENTRICITY": 0.0009106,
        "ELEMENT_SET_NO": 999,
        "EPHEMERIS_TYPE": 0,
        "EPOCH": "2026-05-04T01:21:24.484032",
        "INCLINATION": 51.6124,
        "MEAN_ANOMALY": 327.1149,
        "MEAN_MOTION": 15.96523076,
        "MEAN_MOTION_DDOT": 0.00014964,
        "MEAN_MOTION_DOT": 0.0057483,
        "NORAD_CAT_ID": 66910,
        "OBJECT_ID": "1998-067XW",
        "OBJECT_NAME": "ISS OBJECT XW",
        "RA_OF_ASC_NODE": 138.7107,
        "REV_AT_EPOCH": 2393
    },
    {
        "ARG_OF_PERICENTER": 27.9259,
        "BSTAR": 0.00093276,
        "CLASSIFICATION_TYPE": "U",
        "ECCENTRICITY": 0.0008171,
        "ELEMENT_SET_NO": 999,
        "EPHEMERIS_TYPE": 0,
        "EPOCH": "2026-05-04T02:14:18.432096",
        "INCLINATION": 51.6219,
        "MEAN_ANOMALY": 332.2178,
        "MEAN_MOTION": 15.76580594,
        "MEAN_MOTION_DDOT": 0,
        "MEAN_MOTION_DOT": 0.00154329,
        "NORAD_CAT_ID": 66912,
        "OBJECT_ID": "1998-067XY",
        "OBJECT_NAME": "ISS OBJECT XY",
        "RA_OF_ASC_NODE": 144.3203,
        "REV_AT_EPOCH": 2385
    },
    {
        "ARG_OF_PERICENTER": 31.7607,
        "BSTAR": 0.0005911245,
        "CLASSIFICATION_TYPE": "U",
        "ECCENTRICITY": 0.00127158,
        "ELEMENT_SET_NO": 999,
        "EPHEMERIS_TYPE": 0,
        "EPOCH": "2026-05-03T09:15:08.317152",
        "INCLINATION": 51.6273,
        "MEAN_ANOMALY": 328.4149,
        "MEAN_MOTION": 15.56224547,
        "MEAN_MOTION_DDOT": 0,
        "MEAN_MOTION_DOT": 0.00042137,
        "NORAD_CAT_ID": 67683,
        "OBJECT_ID": "1998-067XZ",
        "OBJECT_NAME": "KNACKSAT-2",
        "RA_OF_ASC_NODE": 159.1481,
        "REV_AT_EPOCH": 1329
    },
    {
        "ARG_OF_PERICENTER": 29.4721,
        "BSTAR": 0.0010824,
        "CLASSIFICATION_TYPE": "U",
        "ECCENTRICITY": 0.0016451,
        "ELEMENT_SET_NO": 999,
        "EPHEMERIS_TYPE": 0,
        "EPOCH": "2026-05-04T01:47:44.792736",
        "INCLINATION": 51.6246,
        "MEAN_ANOMALY": 330.7198,
        "MEAN_MOTION": 15.64372849,
        "MEAN_MOTION_DDOT": 0,
        "MEAN_MOTION_DOT": 0.00107328,
        "NORAD_CAT_ID": 67684,
        "OBJECT_ID": "1998-067YA",
        "OBJECT_NAME": "CORAL",
        "RA_OF_ASC_NODE": 153.2433,
        "REV_AT_EPOCH": 1343
    },
    {
        "ARG_OF_PERICENTER": 29.5636,
        "BSTAR": 0.00066602118,
        "CLASSIFICATION_TYPE": "U",
        "ECCENTRICITY": 0.00146964,
        "ELEMENT_SET_NO": 999,
        "EPHEMERIS_TYPE": 0,
        "EPOCH": "2026-05-03T10:09:06.940800",
        "INCLINATION": 51.6277,
        "MEAN_ANOMALY": 330.6183,
        "MEAN_MOTION": 15.57146087,
        "MEAN_MOTION_DDOT": 0,
        "MEAN_MOTION_DOT": 0.00049317,
        "NORAD_CAT_ID": 67685,
        "OBJECT_ID": "1998-067YB",
        "OBJECT_NAME": "GXIBA-1",
        "RA_OF_ASC_NODE": 158.648,
        "REV_AT_EPOCH": 1330
    },
    {
        "ARG_OF_PERICENTER": 15.0795,
        "BSTAR": 0.00073612,
        "CLASSIFICATION_TYPE": "U",
        "ECCENTRICITY": 0.0011684,
        "ELEMENT_SET_NO": 999,
        "EPHEMERIS_TYPE": 0,
        "EPOCH": "2026-05-04T01:57:56.306016",
        "INCLINATION": 51.6266,
        "MEAN_ANOMALY": 345.0544,
        "MEAN_MOTION": 15.59023082,
        "MEAN_MOTION_DDOT": 0,
        "MEAN_MOTION_DOT": 0.00058548,
        "NORAD_CAT_ID": 67686,
        "OBJECT_ID": "1998-067YC",
        "OBJECT_NAME": "UITMSAT-2",
        "RA_OF_ASC_NODE": 154.8004,
        "REV_AT_EPOCH": 1341
    },
    {
        "ARG_OF_PERICENTER": 13.5719,
        "BSTAR": 0.00062855,
        "CLASSIFICATION_TYPE": "U",
        "ECCENTRICITY": 0.0010877,
        "ELEMENT_SET_NO": 999,
        "EPHEMERIS_TYPE": 0,
        "EPOCH": "2026-05-03T13:31:19.034400",
        "INCLINATION": 51.6282,
        "MEAN_ANOMALY": 346.5563,
        "MEAN_MOTION": 15.56782399,
        "MEAN_MOTION_DDOT": 0,
        "MEAN_MOTION_DOT": 0.00045762,
        "NORAD_CAT_ID": 67687,
        "OBJECT_ID": "1998-067YD",
        "OBJECT_NAME": "HMU-SAT2",
        "RA_OF_ASC_NODE": 158.0912,
        "REV_AT_EPOCH": 1324
    },
    {
        "ARG_OF_PERICENTER": 14.923,
        "BSTAR": 0.00068439,
        "CLASSIFICATION_TYPE": "U",
        "ECCENTRICITY": 0.0011302,
        "ELEMENT_SET_NO": 999,
        "EPHEMERIS_TYPE": 0,
        "EPOCH": "2026-05-04T02:28:44.063328",
        "INCLINATION": 51.6276,
        "MEAN_ANOMALY": 345.2094,
        "MEAN_MOTION": 15.58197575,
        "MEAN_MOTION_DDOT": 0,
        "MEAN_MOTION_DOT": 0.00052665,
        "NORAD_CAT_ID": 67688,
        "OBJECT_ID": "1998-067YE",
        "OBJECT_NAME": "LEOPARD",
        "RA_OF_ASC_NODE": 154.9462,
        "REV_AT_EPOCH": 1333
    },
    {
        "ARG_OF_PERICENTER": 21.3717,
        "BSTAR": 0.00010582,
        "CLASSIFICATION_TYPE": "U",
        "ECCENTRICITY": 0.0007307,
        "ELEMENT_SET_NO": 999,
        "EPHEMERIS_TYPE": 0,
        "EPOCH": "2026-05-04T04:47:36.239136",
        "INCLINATION": 51.6306,
        "MEAN_ANOMALY": 338.7575,
        "MEAN_MOTION": 15.4908501,
        "MEAN_MOTION_DDOT": 0,
        "MEAN_MOTION_DOT": 5.402e-05,
        "NORAD_CAT_ID": 67796,
        "OBJECT_ID": "2026-031A",
        "OBJECT_NAME": "CREW DRAGON 12",
        "RA_OF_ASC_NODE": 157.8339,
        "REV_AT_EPOCH": 56515
    }